0 PSLV DEB
1 31403U 96017D   13282.67192278  .00011371  00000-0  36241-2 0  9702
2 31403 098.3683 238.5847 0026253 302.6604 181.2167 14.39724785912093
0 PSLV DEB
1 31403U 96017D   13283.69045744  .00007770  00000-0  24712-2 0  9719
2 31403 098.3707 239.5764 0027458 297.9858 061.9040 14.39730349912248
0 PSLV DEB
1 31403U 96017D   13287.10688777  .00010986  00000-0  34964-2 0  9722
2 31403 098.3671 242.9182 0025336 289.0243 128.8075 14.39818480912731
0 PSLV DEB
1 31403U 96017D   13288.71727003  .00014695  00000-0  46658-2 0  9731
2 31403 098.3675 244.4920 0025076 283.9922 196.3060 14.39862095912960
0 PSLV DEB
1 31403U 96017D   13290.73224689  .00016031  00000-0  50834-2 0  9746
2 31403 098.3680 246.4606 0024754 277.5135 201.5621 14.39909274913252
0 PSLV DEB
1 31403U 96017D   13291.70573270  .00012600  00000-0  39989-2 0  9754
2 31403 098.3682 247.4118 0024531 274.4343 207.9916 14.39929768913395
0 PSLV DEB
1 31403U 96017D   13293.84185690  .00013964  00000-0  44256-2 0  9764
2 31403 098.3685 249.4994 0024087 267.6819 121.6828 14.39981519913699
0 PSLV DEB
1 31403U 96017D   13295.86222282  .00017116  00000-0  54130-2 0  9773
2 31403 098.3686 251.4735 0023851 260.7995 156.1793 14.40036753913993
